HST                     
1 20580U 90037B   26164.23141094  .00006133  00000+0  19317-3 0  9993
2 20580  28.4712 107.6084 0001932 101.0971 258.9842 15.30704754787962
POLAR                   
1 23802U 96013A   26163.41563634  .00000137  00000+0  00000+0 0  9993
2 23802  79.8476 227.1080 6465772 209.2439  89.5501  1.29846131144792
SWAS                    
1 25560U 98071A   26164.30509188  .00003271  00000+0  20940-3 0  9996
2 25560  69.8962 237.5303 0008774 263.9777  96.0387 15.09605489496683
CXO                     
1 25867U 99040B   26166.73124906  .00000579  00000+0  00000+0 0  9992
2 25867  56.1776 116.6293 7842889 310.3072   0.0447  0.37804362 17312
XMM-NEWTON              
1 25989U 99066A   26165.35763487  .00000064  00000+0  00000+0 0  9994
2 25989  64.5048 283.0226 4675842  64.9764   0.1205  0.50124916 22995
TERRA                   
1 25994U 99068A   26164.25360138  .00000362  00000+0  82662-4 0  9996
2 25994  97.9457 213.9557 0001280 204.7308 230.1329 14.61100215409036
CLUSTER II-FM7 (SAMBA)  
1 26410U 00041A   26165.90943278  .00008926  00000+0  00000+0 0  9993
2 26410 149.9112  50.5199 9050263 267.6271 359.8755  0.44879327 20296
CLUSTER II-FM8 (TANGO)  
1 26464U 00045B   26161.68509682  .00004606  00000+0  00000+0 0  9995
2 26464 150.1494  50.8052 9052968 267.7196   3.1444  0.44409537 20289
ODIN                    
1 26702U 01007A   26164.09214154  .00175835  00000+0  11903-2 0  9994
2 26702  97.3846 204.7744 0006579 148.0706 212.0959 15.74479547388759
TIMED                   
1 26998U 01055B   26164.26149090  .00001145  00000+0  10755-3 0  9996
2 26998  74.0675 242.9227 0000894 342.8135  17.3019 14.95287519330233
CORIOLIS                
1 27640U 03001A   26164.25113668  .00000095  00000+0  65043-4 0  9999
2 27640  98.7126 171.1960 0013167 220.7726 139.2466 14.19943785213663
SORCE                   
1 27651U 03004A   26164.02186433  .00002970  00000+0  22323-3 0  9996
2 27651  39.9913 285.4428 0017033  17.9298 342.2094 15.03693148271273
MOST                    
1 27843U 03031D   26164.19866983  .00000066  00000+0  50159-4 0  9995
2 27843  98.7045 171.9804 0008684 263.4940  96.5249 14.21321749190147
SCISAT 1                
1 27858U 03036A   26164.30891213  .00000466  00000+0  64221-4 0  9992
2 27858  73.9285 179.0486 0008630 248.4993 111.5263 14.81444144230871
SWIFT                   
1 28485U 04047A   26163.86132922  .00051552  00000+0  43565-3 0  9996
2 28485  20.5515 218.2629 0001867 218.5944 141.4368 15.67930630186183
HINODE (SOLAR-B)        
1 29479U 06041A   26164.30185151  .00000671  00000+0  12370-3 0  9994
2 29479  98.0549 180.5117 0016148 303.2262  56.7394 14.68618302 54304
SHIJIAN-6 02A (SJ-6 02A)
1 29505U 06046A   26164.26563334  .00007394  00000+0  37862-3 0  9999
2 29505  97.6364 205.3028 0004180 135.0547 225.1025 15.16898728 71679
SHIJIAN-6 02B (SJ-6 02B)
1 29506U 06046B   26164.34750258  .00001641  00000+0  13181-3 0  9999
2 29506  97.7164 193.4300 0015163  71.4830 288.8040 15.01368843 70160
FGRST (GLAST)           
1 33053U 08029A   26163.51411918  .00003181  00000+0  11432-3 0  9997
2 33053  25.5810 236.9313 0007578 271.0756  88.8914 15.23927760995125
SDO                     
1 36395U 10005A   26164.25047192 -.00000088  00000+0  00000+0 0  9996
2 36395  34.6433  86.4025 0001670  51.4849 111.7994  1.00270126 60020
CRYOSAT 2               
1 36508U 10013A   26164.29089590  .00000152  00000+0  36958-4 0  9990
2 36508  92.0351 276.3545 0002187  87.8806 272.2651 14.51897871857513
X-SAT                   
1 37389U 11015C   26164.22382095 -.00000029  00000+0  51473-5 0  9994
2 37389  98.3503 141.4358 0014236   0.2140 359.9044 14.25204835787111
GCOM-W1 (SHIZUKU)       
1 38337U 12025A   26164.10903175  .00000427  00000+0  10469-3 0  9994
2 38337  98.2022 104.7264 0001824  77.7623 292.9712 14.57121198748448
NUSTAR                  
1 38358U 12031A   26164.33335648  .00016097  00000+0  93919-3 0  9994
2 38358   6.0279  63.0320 0006628  44.3081 294.2973 15.08766496  1301
NEOSSAT                 
1 39089U 13009D   26164.23738201  .00000140  00000+0  63082-4 0  9994
2 39089  98.4175 344.3640 0009806 257.0319 102.9773 14.35825108696174
BRITE-AUSTRIA           
1 39091U 13009F   26164.02901770  .00000161  00000+0  69463-4 0  9999
2 39091  98.3993 343.5677 0009018 250.5098 109.5115 14.36540568696451
IRIS                    
1 39197U 13033A   26164.12441399  .00000994  00000+0  12003-3 0  9991
2 39197  97.9332   3.4143 0023830 335.5415  24.4667 14.85877877699770
HISAKI (SPRINT-A)       
1 39253U 13049A   26163.93065597  .00000139  00000+0  10132-3 0  9993
2 39253  29.7192 241.6544 0136891 342.3499  17.2350 13.55544353630849
CASSIOPE                
1 39265U 13055A   26164.22530005  .00048651 -44564-6  53304-3 0  9997
2 39265  80.9152  71.5311 0294236  75.7481 287.6236 15.24828635667061
STSAT-3                 
1 39422U 13066G   26164.25076831  .00003273  00000+0  24920-3 0  9991
2 39422  97.6211 134.2025 0011162  55.1201 305.1072 15.02736275683610
SWARM B                 
1 39451U 13067A   26164.27126482  .00003232  00000+0  11523-3 0  9994
2 39451  87.7433 343.5069 0003372  88.3992 271.7644 15.28528781682644
